HULIANWANG DIGUI-28     
1 63695U 25086J   26198.91640765  .00000057  00000+0  97580-4 0  9998
2 63695  86.5021 302.5807 0002132 111.1592 248.9770 13.24411055 58923
HULIANWANG DIGUI-29     
1 63696U 25086K   26198.90888592  .00000041  00000+0  61460-4 0  9991
2 63696  86.5049 302.6996 0001997 113.3813 246.7531 13.24411402 58929
HULIANWANG DIGUI-30     
1 64283U 25121A   26198.91632823  .00000004  00000+0 -25067-4 0  9992
2 64283  86.4998   3.1875 0001937  89.1952 270.9404 13.24409544 54222
HULIANWANG DIGUI-31     
1 64284U 25121B   26198.90881533  .00000004  00000+0 -24846-4 0  9990
2 64284  86.5019   3.2671 0001936  89.4053 270.7303 13.24414550 54226
HULIANWANG DIGUI-32     
1 64285U 25121C   26198.90112511  .00000004  00000+0 -24456-4 0  9991
2 64285  86.4960   3.0230 0001910  93.6469 266.4883 13.24410424 54221
HULIANWANG DIGUI-33     
1 64286U 25121D   26198.89357682  .00000016  00000+0  21288-5 0  9993
2 64286  86.5012   3.2560 0001887  89.4159 270.7192 13.24409968 54223
HULIANWANG DIGUI-34     
1 64287U 25121E   26198.88605822  .00000017  00000+0  53601-5 0  9990
2 64287  86.4990   3.1615 0002051  81.2346 278.9020 13.24410659 54229
HULIANWANG DIGUI-35     
1 64956U 25159A   26198.92399943  .00000065  00000+0  11754-3 0  9997
2 64956  86.4938 272.0466 0004383  60.4601 299.6969 13.24413271 47191
HULIANWANG DIGUI-36     
1 64957U 25159B   26198.92009581  .00000065  00000+0  11645-3 0  9993
2 64957  86.4958 272.1142 0001656 103.0200 257.1119 13.24408698 47198
HULIANWANG DIGUI-37     
1 64958U 25159C   26198.91252398  .00000061  00000+0  10779-3 0  9992
2 64958  86.4899 271.9027 0001782  98.2815 261.8521 13.24409409 47199
HULIANWANG DIGUI-38     
1 64959U 25159D   26198.90500520  .00000053  00000+0  88700-4 0  9996
2 64959  86.4957 272.1071 0001839  99.1738 260.9604 13.24409108 47192
HULIANWANG DIGUI-39     
1 64960U 25159E   26198.89743782  .00000042  00000+0  64002-4 0  9992
2 64960  86.4933 272.0180 0001815 102.0919 258.0419 13.24408990 47197
HULIANWANG DIGUI-40     
1 65043U 25162A   26198.91451544 -.00000108  00000+0  34815-4 0  9997
2 65043  49.9981 155.7250 0000279 329.2195  30.8661 13.29327448 47439
HULIANWANG DIGUI-41     
1 65044U 25162B   26198.90617954 -.00000122  00000+0  36530-5 0  9999
2 65044  49.9991 155.7093 0000266 341.9137  18.1725 13.29326984 47444
HULIANWANG DIGUI-42     
1 65045U 25162C   26198.89775879 -.00000118  00000+0  13215-4 0  9998
2 65045  49.9956 155.5685 0000272 330.3683  29.7173 13.29327662 47445
HULIANWANG DIGUI-43     
1 65046U 25162D   26198.88944540 -.00000122  00000+0  51777-5 0  9992
2 65046  49.9973 155.5745 0000309 326.9746  33.1107 13.29326183 47447
