{"fetched_at":"2026-07-18T06:28:10.739Z","source":"https://celestrak.org/NORAD/elements/gp.php?NAME=HULIANWANG&FORMAT=JSON","constellation":"guowang","records":[{"OBJECT_NAME":"HULIANWANG DIGUI-28","OBJECT_ID":"2025-086J","EPOCH":"2026-07-17T21:59:37.620960","CLASSIFICATION_TYPE":"U","MEAN_MOTION":13.24411055,"ECCENTRICITY":0.00021324,"INCLINATION":86.5021,"RA_OF_ASC_NODE":302.5807,"ARG_OF_PERICENTER":111.1592,"MEAN_ANOMALY":248.977,"EPHEMERIS_TYPE":0,"NORAD_CAT_ID":63695,"ELEMENT_SET_NO":999,"REV_AT_EPOCH":5892,"BSTAR":0.000097580123,"MEAN_MOTION_DOT":5.7e-7,"MEAN_MOTION_DDOT":0},{"OBJECT_NAME":"HULIANWANG DIGUI-29","OBJECT_ID":"2025-086K","EPOCH":"2026-07-17T21:48:47.743488","CLASSIFICATION_TYPE":"U","MEAN_MOTION":13.24411402,"ECCENTRICITY":0.00019972,"INCLINATION":86.5049,"RA_OF_ASC_NODE":302.6996,"ARG_OF_PERICENTER":113.3813,"MEAN_ANOMALY":246.7531,"EPHEMERIS_TYPE":0,"NORAD_CAT_ID":63696,"ELEMENT_SET_NO":999,"REV_AT_EPOCH":5892,"BSTAR":0.000061459504,"MEAN_MOTION_DOT":4.1e-7,"MEAN_MOTION_DDOT":0},{"OBJECT_NAME":"HULIANWANG DIGUI-30","OBJECT_ID":"2025-121A","EPOCH":"2026-07-17T21:59:30.759072","CLASSIFICATION_TYPE":"U","MEAN_MOTION":13.24409544,"ECCENTRICITY":0.00019374,"INCLINATION":86.4998,"RA_OF_ASC_NODE":3.1875,"ARG_OF_PERICENTER":89.1952,"MEAN_ANOMALY":270.9404,"EPHEMERIS_TYPE":0,"NORAD_CAT_ID":64283,"ELEMENT_SET_NO":999,"REV_AT_EPOCH":5422,"BSTAR":-0.000025066856,"MEAN_MOTION_DOT":4e-8,"MEAN_MOTION_DDOT":0},{"OBJECT_NAME":"HULIANWANG DIGUI-31","OBJECT_ID":"2025-121B","EPOCH":"2026-07-17T21:48:41.644512","CLASSIFICATION_TYPE":"U","MEAN_MOTION":13.2441455,"ECCENTRICITY":0.00019365,"INCLINATION":86.5019,"RA_OF_ASC_NODE":3.2671,"ARG_OF_PERICENTER":89.4053,"MEAN_ANOMALY":270.7303,"EPHEMERIS_TYPE":0,"NORAD_CAT_ID":64284,"ELEMENT_SET_NO":999,"REV_AT_EPOCH":5422,"BSTAR":-0.000024846491,"MEAN_MOTION_DOT":4e-8,"MEAN_MOTION_DDOT":0},{"OBJECT_NAME":"HULIANWANG DIGUI-32","OBJECT_ID":"2025-121C","EPOCH":"2026-07-17T21:37:37.209504","CLASSIFICATION_TYPE":"U","MEAN_MOTION":13.24410424,"ECCENTRICITY":0.00019103,"INCLINATION":86.496,"RA_OF_ASC_NODE":3.023,"ARG_OF_PERICENTER":93.6469,"MEAN_ANOMALY":266.4883,"EPHEMERIS_TYPE":0,"NORAD_CAT_ID":64285,"ELEMENT_SET_NO":999,"REV_AT_EPOCH":5422,"BSTAR":-0.000024455965,"MEAN_MOTION_DOT":4e-8,"MEAN_MOTION_DDOT":0},{"OBJECT_NAME":"HULIANWANG DIGUI-33","OBJECT_ID":"2025-121D","EPOCH":"2026-07-17T21:26:45.037248","CLASSIFICATION_TYPE":"U","MEAN_MOTION":13.24409968,"ECCENTRICITY":0.00018872,"INCLINATION":86.5012,"RA_OF_ASC_NODE":3.256,"ARG_OF_PERICENTER":89.4159,"MEAN_ANOMALY":270.7192,"EPHEMERIS_TYPE":0,"NORAD_CAT_ID":64286,"ELEMENT_SET_NO":999,"REV_AT_EPOCH":5422,"BSTAR":0.000002128783,"MEAN_MOTION_DOT":1.6e-7,"MEAN_MOTION_DDOT":0},{"OBJECT_NAME":"HULIANWANG DIGUI-34","OBJECT_ID":"2025-121E","EPOCH":"2026-07-17T21:15:55.430208","CLASSIFICATION_TYPE":"U","MEAN_MOTION":13.24410659,"ECCENTRICITY":0.00020514,"INCLINATION":86.499,"RA_OF_ASC_NODE":3.1615,"ARG_OF_PERICENTER":81.2346,"MEAN_ANOMALY":278.902,"EPHEMERIS_TYPE":0,"NORAD_CAT_ID":64287,"ELEMENT_SET_NO":999,"REV_AT_EPOCH":5422,"BSTAR":0.000005360121,"MEAN_MOTION_DOT":1.7e-7,"MEAN_MOTION_DDOT":0},{"OBJECT_NAME":"HULIANWANG DIGUI-35","OBJECT_ID":"2025-159A","EPOCH":"2026-07-17T22:10:33.550752","CLASSIFICATION_TYPE":"U","MEAN_MOTION":13.24413271,"ECCENTRICITY":0.00043839,"INCLINATION":86.4938,"RA_OF_ASC_NODE":272.0466,"ARG_OF_PERICENTER":60.4601,"MEAN_ANOMALY":299.6969,"EPHEMERIS_TYPE":0,"NORAD_CAT_ID":64956,"ELEMENT_SET_NO":999,"REV_AT_EPOCH":4719,"BSTAR":0.00011753597,"MEAN_MOTION_DOT":6.5e-7,"MEAN_MOTION_DDOT":0},{"OBJECT_NAME":"HULIANWANG DIGUI-36","OBJECT_ID":"2025-159B","EPOCH":"2026-07-17T22:04:56.277984","CLASSIFICATION_TYPE":"U","MEAN_MOTION":13.24408698,"ECCENTRICITY":0.00016565,"INCLINATION":86.4958,"RA_OF_ASC_NODE":272.1142,"ARG_OF_PERICENTER":103.02,"MEAN_ANOMALY":257.1119,"EPHEMERIS_TYPE":0,"NORAD_CAT_ID":64957,"ELEMENT_SET_NO":999,"REV_AT_EPOCH":4719,"BSTAR":0.0001164516,"MEAN_MOTION_DOT":6.5e-7,"MEAN_MOTION_DDOT":0},{"OBJECT_NAME":"HULIANWANG DIGUI-37","OBJECT_ID":"2025-159C","EPOCH":"2026-07-17T21:54:02.071872","CLASSIFICATION_TYPE":"U","MEAN_MOTION":13.24409409,"ECCENTRICITY":0.00017825,"INCLINATION":86.4899,"RA_OF_ASC_NODE":271.9027,"ARG_OF_PERICENTER":98.2815,"MEAN_ANOMALY":261.8521,"EPHEMERIS_TYPE":0,"NORAD_CAT_ID":64958,"ELEMENT_SET_NO":999,"REV_AT_EPOCH":4719,"BSTAR":0.00010778627,"MEAN_MOTION_DOT":6.1e-7,"MEAN_MOTION_DDOT":0},{"OBJECT_NAME":"HULIANWANG DIGUI-38","OBJECT_ID":"2025-159D","EPOCH":"2026-07-17T21:43:12.449280","CLASSIFICATION_TYPE":"U","MEAN_MOTION":13.24409108,"ECCENTRICITY":0.00018395,"INCLINATION":86.4957,"RA_OF_ASC_NODE":272.1071,"ARG_OF_PERICENTER":99.1738,"MEAN_ANOMALY":260.9604,"EPHEMERIS_TYPE":0,"NORAD_CAT_ID":64959,"ELEMENT_SET_NO":999,"REV_AT_EPOCH":4719,"BSTAR":0.000088700061,"MEAN_MOTION_DOT":5.3e-7,"MEAN_MOTION_DDOT":0},{"OBJECT_NAME":"HULIANWANG DIGUI-39","OBJECT_ID":"2025-159E","EPOCH":"2026-07-17T21:32:18.627648","CLASSIFICATION_TYPE":"U","MEAN_MOTION":13.2440899,"ECCENTRICITY":0.00018152,"INCLINATION":86.4933,"RA_OF_ASC_NODE":272.018,"ARG_OF_PERICENTER":102.0919,"MEAN_ANOMALY":258.0419,"EPHEMERIS_TYPE":0,"NORAD_CAT_ID":64960,"ELEMENT_SET_NO":999,"REV_AT_EPOCH":4719,"BSTAR":0.000064002316,"MEAN_MOTION_DOT":4.2e-7,"MEAN_MOTION_DDOT":0},{"OBJECT_NAME":"HULIANWANG DIGUI-40","OBJECT_ID":"2025-162A","EPOCH":"2026-07-17T21:56:54.134016","CLASSIFICATION_TYPE":"U","MEAN_MOTION":13.29327448,"ECCENTRICITY":0.00002795,"INCLINATION":49.9981,"RA_OF_ASC_NODE":155.725,"ARG_OF_PERICENTER":329.2195,"MEAN_ANOMALY":30.8661,"EPHEMERIS_TYPE":0,"NORAD_CAT_ID":65043,"ELEMENT_SET_NO":999,"REV_AT_EPOCH":4743,"BSTAR":0.000034814784,"MEAN_MOTION_DOT":-0.00000108,"MEAN_MOTION_DDOT":0},{"OBJECT_NAME":"HULIANWANG DIGUI-41","OBJECT_ID":"2025-162B","EPOCH":"2026-07-17T21:44:53.912256","CLASSIFICATION_TYPE":"U","MEAN_MOTION":13.29326984,"ECCENTRICITY":0.00002661,"INCLINATION":49.9991,"RA_OF_ASC_NODE":155.7093,"ARG_OF_PERICENTER":341.9137,"MEAN_ANOMALY":18.1725,"EPHEMERIS_TYPE":0,"NORAD_CAT_ID":65044,"ELEMENT_SET_NO":999,"REV_AT_EPOCH":4744,"BSTAR":0.000003653003,"MEAN_MOTION_DOT":-0.00000122,"MEAN_MOTION_DDOT":0},{"OBJECT_NAME":"HULIANWANG DIGUI-42","OBJECT_ID":"2025-162C","EPOCH":"2026-07-17T21:32:46.359456","CLASSIFICATION_TYPE":"U","MEAN_MOTION":13.29327662,"ECCENTRICITY":0.00002729,"INCLINATION":49.9956,"RA_OF_ASC_NODE":155.5685,"ARG_OF_PERICENTER":330.3683,"MEAN_ANOMALY":29.7173,"EPHEMERIS_TYPE":0,"NORAD_CAT_ID":65045,"ELEMENT_SET_NO":999,"REV_AT_EPOCH":4744,"BSTAR":0.000013214984,"MEAN_MOTION_DOT":-0.00000118,"MEAN_MOTION_DDOT":0},{"OBJECT_NAME":"HULIANWANG DIGUI-43","OBJECT_ID":"2025-162D","EPOCH":"2026-07-17T21:20:48.082560","CLASSIFICATION_TYPE":"U","MEAN_MOTION":13.29326183,"ECCENTRICITY":0.00003095,"INCLINATION":49.9973,"RA_OF_ASC_NODE":155.5745,"ARG_OF_PERICENTER":326.9746,"MEAN_ANOMALY":33.1107,"EPHEMERIS_TYPE":0,"NORAD_CAT_ID":65046,"ELEMENT_SET_NO":999,"REV_AT_EPOCH":4744,"BSTAR":0.000005177688,"MEAN_MOTION_DOT":-0.00000122,"MEAN_MOTION_DDOT":0}]}
